UNKNOWN                 
1 87991U          25324.39945669  .00002317  00000+0  46245-2 0  9996
2 87991  28.6256 353.8856 0884458 246.3283 104.2021 12.34874750520231
UNKNOWN                 
1 89003U          25319.55414108  .00000717  00000+0  25466-3 0  9998
2 89003  74.0493  64.4739 0014016 133.4339 226.7983 14.36170170627642
UNKNOWN                 
1 89005U          25332.48452368  .00002309  00000+0  53048-3 0  9993
2 89005  97.8394 162.6989 0193070  75.5766 286.6768 14.45470264532034
UNKNOWN                 
1 89029U          25330.96565414  .00006410  00000+0  60139-3 0  9993
2 89029  98.0492 229.8182 0023908  20.6251 339.5928 14.94136890648723
UNKNOWN                 
1 89101U          25325.61381331  .00000003  00000+0  13668-3 0  9991
2 89101 100.4596 262.9913 0146763 154.8688 205.9652 13.03997758552097
UNKNOWN                 
1 89132U          25332.53753929  .00003163  00000+0  42898-2 0  9996
2 89132  63.4191  66.9241 2931635 319.6321  21.9613  8.86339253323851
UNKNOWN                 
1 89146U          25331.59868912  .00004207  00000+0  78112-3 0  9994
2 89146  98.2459 260.3301 0094979 102.2948 258.8907 14.62840752626660
UNKNOWN                 
1 89161U          25332.50373647  .00075808  00000+0  20404-2 0  9994
2 89161  97.6616 347.5910 0041617 111.5288 249.0400 15.36691218546394
UNKNOWN                 
1 89172U          25310.55922806  .00030689  00000+0  50523-2 0  9997
2 89172  82.0637 255.8555 0299972  32.7390 329.2000 14.44728547596666
UNKNOWN                 
1 89177U          25332.60405141  .00000117  00000+0  10844-3 0  9996
2 89177  82.9201 279.5997 0032265 179.4907 180.6287 13.73722918 60886
UNKNOWN                 
1 89183U          25332.49407551  .00000474  00000+0  45539-3 0  9992
2 89183  99.2179 243.8973 0129612 194.4287 165.3151 13.81559133605002
UNKNOWN                 
1 89184U          25331.88124963  .00025725  00000+0  33958-2 0  9995
2 89184  98.3898 195.9334 0008015 171.0697 189.0657 14.79984670489974
