CCSDS_OMM_VERS = 2.0
CREATION_DATE  = 
ORIGINATOR     = 

OBJECT_NAME    = UNKNOWN
OBJECT_ID      = 
CENTER_NAME    = EARTH
REF_FRAME      = TEME
TIME_SYSTEM    = UTC
MEAN_ELEMENT_THEORY = SGP/SGP4

EPOCH          = 2025-11-20T09:35:13.058016
MEAN_MOTION    = 12.34874750
ECCENTRICITY   = .0884458
INCLINATION    = 28.6256
RA_OF_ASC_NODE = 353.8856
ARG_OF_PERICENTER = 246.3283
MEAN_ANOMALY   = 104.2021

EPHEMERIS_TYPE = 0
CLASSIFICATION_TYPE = U
NORAD_CAT_ID   = 87991
ELEMENT_SET_NO = 999
REV_AT_EPOCH   = 52023
BSTAR          = .46245E-2
MEAN_MOTION_DOT = .2317E-4
MEAN_MOTION_DDOT = 0

CCSDS_OMM_VERS = 2.0
CREATION_DATE  = 
ORIGINATOR     = 

OBJECT_NAME    = UNKNOWN
OBJECT_ID      = 
CENTER_NAME    = EARTH
REF_FRAME      = TEME
TIME_SYSTEM    = UTC
MEAN_ELEMENT_THEORY = SGP/SGP4

EPOCH          = 2025-11-15T13:17:57.789312
MEAN_MOTION    = 14.36170170
ECCENTRICITY   = .0014016
INCLINATION    = 74.0493
RA_OF_ASC_NODE = 64.4739
ARG_OF_PERICENTER = 133.4339
MEAN_ANOMALY   = 226.7983

EPHEMERIS_TYPE = 0
CLASSIFICATION_TYPE = U
NORAD_CAT_ID   = 89003
ELEMENT_SET_NO = 999
REV_AT_EPOCH   = 62764
BSTAR          = .25466E-3
MEAN_MOTION_DOT = .717E-5
MEAN_MOTION_DDOT = 0

CCSDS_OMM_VERS = 2.0
CREATION_DATE  = 
ORIGINATOR     = 

OBJECT_NAME    = UNKNOWN
OBJECT_ID      = 
CENTER_NAME    = EARTH
REF_FRAME      = TEME
TIME_SYSTEM    = UTC
MEAN_ELEMENT_THEORY = SGP/SGP4

EPOCH          = 2025-11-28T11:37:42.845952
MEAN_MOTION    = 14.45470264
ECCENTRICITY   = .019307
INCLINATION    = 97.8394
RA_OF_ASC_NODE = 162.6989
ARG_OF_PERICENTER = 75.5766
MEAN_ANOMALY   = 286.6768

EPHEMERIS_TYPE = 0
CLASSIFICATION_TYPE = U
NORAD_CAT_ID   = 89005
ELEMENT_SET_NO = 999
REV_AT_EPOCH   = 53203
BSTAR          = .53048E-3
MEAN_MOTION_DOT = .2309E-4
MEAN_MOTION_DDOT = 0

CCSDS_OMM_VERS = 2.0
CREATION_DATE  = 
ORIGINATOR     = 

OBJECT_NAME    = UNKNOWN
OBJECT_ID      = 
CENTER_NAME    = EARTH
REF_FRAME      = TEME
TIME_SYSTEM    = UTC
MEAN_ELEMENT_THEORY = SGP/SGP4

EPOCH          = 2025-11-26T23:10:32.517696
MEAN_MOTION    = 14.94136890
ECCENTRICITY   = .0023908
INCLINATION    = 98.0492
RA_OF_ASC_NODE = 229.8182
ARG_OF_PERICENTER = 20.6251
MEAN_ANOMALY   = 339.5928

EPHEMERIS_TYPE = 0
CLASSIFICATION_TYPE = U
NORAD_CAT_ID   = 89029
ELEMENT_SET_NO = 999
REV_AT_EPOCH   = 64872
BSTAR          = .60139E-3
MEAN_MOTION_DOT = .641E-4
MEAN_MOTION_DDOT = 0

CCSDS_OMM_VERS = 2.0
CREATION_DATE  = 
ORIGINATOR     = 

OBJECT_NAME    = UNKNOWN
OBJECT_ID      = 
CENTER_NAME    = EARTH
REF_FRAME      = TEME
TIME_SYSTEM    = UTC
MEAN_ELEMENT_THEORY = SGP/SGP4

EPOCH          = 2025-11-21T14:43:53.469984
MEAN_MOTION    = 13.03997758
ECCENTRICITY   = .0146763
INCLINATION    = 100.4596
RA_OF_ASC_NODE = 262.9913
ARG_OF_PERICENTER = 154.8688
MEAN_ANOMALY   = 205.9652

EPHEMERIS_TYPE = 0
CLASSIFICATION_TYPE = U
NORAD_CAT_ID   = 89101
ELEMENT_SET_NO = 999
REV_AT_EPOCH   = 55209
BSTAR          = .13668E-3
MEAN_MOTION_DOT = .3E-7
MEAN_MOTION_DDOT = 0

CCSDS_OMM_VERS = 2.0
CREATION_DATE  = 
ORIGINATOR     = 

OBJECT_NAME    = UNKNOWN
OBJECT_ID      = 
CENTER_NAME    = EARTH
REF_FRAME      = TEME
TIME_SYSTEM    = UTC
MEAN_ELEMENT_THEORY = SGP/SGP4

EPOCH          = 2025-11-28T12:54:03.394656
MEAN_MOTION    = 8.86339253
ECCENTRICITY   = .2931635
INCLINATION    = 63.4191
RA_OF_ASC_NODE = 66.9241
ARG_OF_PERICENTER = 319.6321
MEAN_ANOMALY   = 21.9613

EPHEMERIS_TYPE = 0
CLASSIFICATION_TYPE = U
NORAD_CAT_ID   = 89132
ELEMENT_SET_NO = 999
REV_AT_EPOCH   = 32385
BSTAR          = .42898E-2
MEAN_MOTION_DOT = .3163E-4
MEAN_MOTION_DDOT = 0

CCSDS_OMM_VERS = 2.0
CREATION_DATE  = 
ORIGINATOR     = 

OBJECT_NAME    = UNKNOWN
OBJECT_ID      = 
CENTER_NAME    = EARTH
REF_FRAME      = TEME
TIME_SYSTEM    = UTC
MEAN_ELEMENT_THEORY = SGP/SGP4

EPOCH          = 2025-11-27T14:22:06.739968
MEAN_MOTION    = 14.62840752
ECCENTRICITY   = .0094979
INCLINATION    = 98.2459
RA_OF_ASC_NODE = 260.3301
ARG_OF_PERICENTER = 102.2948
MEAN_ANOMALY   = 258.8907

EPHEMERIS_TYPE = 0
CLASSIFICATION_TYPE = U
NORAD_CAT_ID   = 89146
ELEMENT_SET_NO = 999
REV_AT_EPOCH   = 62666
BSTAR          = .78112E-3
MEAN_MOTION_DOT = .4207E-4
MEAN_MOTION_DDOT = 0

CCSDS_OMM_VERS = 2.0
CREATION_DATE  = 
ORIGINATOR     = 

OBJECT_NAME    = UNKNOWN
OBJECT_ID      = 
CENTER_NAME    = EARTH
REF_FRAME      = TEME
TIME_SYSTEM    = UTC
MEAN_ELEMENT_THEORY = SGP/SGP4

EPOCH          = 2025-11-28T12:05:22.831008
MEAN_MOTION    = 15.36691218
ECCENTRICITY   = .0041617
INCLINATION    = 97.6616
RA_OF_ASC_NODE = 347.5910
ARG_OF_PERICENTER = 111.5288
MEAN_ANOMALY   = 249.0400

EPHEMERIS_TYPE = 0
CLASSIFICATION_TYPE = U
NORAD_CAT_ID   = 89161
ELEMENT_SET_NO = 999
REV_AT_EPOCH   = 54639
BSTAR          = .20404E-2
MEAN_MOTION_DOT = .75808E-3
MEAN_MOTION_DDOT = 0

CCSDS_OMM_VERS = 2.0
CREATION_DATE  = 
ORIGINATOR     = 

OBJECT_NAME    = UNKNOWN
OBJECT_ID      = 
CENTER_NAME    = EARTH
REF_FRAME      = TEME
TIME_SYSTEM    = UTC
MEAN_ELEMENT_THEORY = SGP/SGP4

EPOCH          = 2025-11-06T13:25:17.304384
MEAN_MOTION    = 14.44728547
ECCENTRICITY   = .0299972
INCLINATION    = 82.0637
RA_OF_ASC_NODE = 255.8555
ARG_OF_PERICENTER = 32.7390
MEAN_ANOMALY   = 329.2000

EPHEMERIS_TYPE = 0
CLASSIFICATION_TYPE = U
NORAD_CAT_ID   = 89172
ELEMENT_SET_NO = 999
REV_AT_EPOCH   = 59666
BSTAR          = .50523E-2
MEAN_MOTION_DOT = .30689E-3
MEAN_MOTION_DDOT = 0

CCSDS_OMM_VERS = 2.0
CREATION_DATE  = 
ORIGINATOR     = 

OBJECT_NAME    = UNKNOWN
OBJECT_ID      = 
CENTER_NAME    = EARTH
REF_FRAME      = TEME
TIME_SYSTEM    = UTC
MEAN_ELEMENT_THEORY = SGP/SGP4

EPOCH          = 2025-11-28T14:29:50.041824
MEAN_MOTION    = 13.73722918
ECCENTRICITY   = .0032265
INCLINATION    = 82.9201
RA_OF_ASC_NODE = 279.5997
ARG_OF_PERICENTER = 179.4907
MEAN_ANOMALY   = 180.6287

EPHEMERIS_TYPE = 0
CLASSIFICATION_TYPE = U
NORAD_CAT_ID   = 89177
ELEMENT_SET_NO = 999
REV_AT_EPOCH   = 6088
BSTAR          = .10844E-3
MEAN_MOTION_DOT = .117E-5
MEAN_MOTION_DDOT = 0

CCSDS_OMM_VERS = 2.0
CREATION_DATE  = 
ORIGINATOR     = 

OBJECT_NAME    = UNKNOWN
OBJECT_ID      = 
CENTER_NAME    = EARTH
REF_FRAME      = TEME
TIME_SYSTEM    = UTC
MEAN_ELEMENT_THEORY = SGP/SGP4

EPOCH          = 2025-11-28T11:51:28.124064
MEAN_MOTION    = 13.81559133
ECCENTRICITY   = .0129612
INCLINATION    = 99.2179
RA_OF_ASC_NODE = 243.8973
ARG_OF_PERICENTER = 194.4287
MEAN_ANOMALY   = 165.3151

EPHEMERIS_TYPE = 0
CLASSIFICATION_TYPE = U
NORAD_CAT_ID   = 89183
ELEMENT_SET_NO = 999
REV_AT_EPOCH   = 60500
BSTAR          = .45539E-3
MEAN_MOTION_DOT = .474E-5
MEAN_MOTION_DDOT = 0

CCSDS_OMM_VERS = 2.0
CREATION_DATE  = 
ORIGINATOR     = 

OBJECT_NAME    = UNKNOWN
OBJECT_ID      = 
CENTER_NAME    = EARTH
REF_FRAME      = TEME
TIME_SYSTEM    = UTC
MEAN_ELEMENT_THEORY = SGP/SGP4

EPOCH          = 2025-11-27T21:08:59.968032
MEAN_MOTION    = 14.79984670
ECCENTRICITY   = .0008015
INCLINATION    = 98.3898
RA_OF_ASC_NODE = 195.9334
ARG_OF_PERICENTER = 171.0697
MEAN_ANOMALY   = 189.0657

EPHEMERIS_TYPE = 0
CLASSIFICATION_TYPE = U
NORAD_CAT_ID   = 89184
ELEMENT_SET_NO = 999
REV_AT_EPOCH   = 48997
BSTAR          = .33958E-2
MEAN_MOTION_DOT = .25725E-3
MEAN_MOTION_DDOT = 0

